[{"OBJECT_NAME":"SHIYAN-20C (SY-20C)","OBJECT_ID":"2022-142A","EPOCH":"2026-03-09T23:50:52.089216","MEAN_MOTION":14.29489925,"ECCENTRICITY":0.00131159,"INCLINATION":59.9943,"RA_OF_ASC_NODE":268.1651,"ARG_OF_PERICENTER":188.0899,"MEAN_ANOMALY":171.9927,"EPHEMERIS_TYPE":0,"CLASSIFICATION_TYPE":"U","NORAD_CAT_ID":54214,"ELEMENT_SET_NO":999,"REV_AT_EPOCH":17551,"BSTAR":7.6576353e-5,"MEAN_MOTION_DOT":6.0e-7,"MEAN_MOTION_DDOT":0},{"OBJECT_NAME":"CZ-6A DEB","OBJECT_ID":"2024-140ADD","EPOCH":"2026-03-09T13:21:07.733664","MEAN_MOTION":14.10751535,"ECCENTRICITY":0.01055404,"INCLINATION":88.8396,"RA_OF_ASC_NODE":276.8735,"ARG_OF_PERICENTER":193.1334,"MEAN_ANOMALY":166.71,"EPHEMERIS_TYPE":0,"CLASSIFICATION_TYPE":"U","NORAD_CAT_ID":61837,"ELEMENT_SET_NO":999,"REV_AT_EPOCH":7578,"BSTAR":0.002090083,"MEAN_MOTION_DOT":3.95e-5,"MEAN_MOTION_DDOT":0}]
